ONEWEB-0326             
1 49195U 21083K   23226.39183611  .00000065  00000+0  13304-3 0  9993
2 49195  87.9289 181.8253 0002188  64.3679 295.7679 13.18683586 94507
ONEWEB-0327             
1 49196U 21083L   23226.44348132  .00000075  00000+0  15770-3 0  9991
2 49196  87.9287 181.7870 0002105  68.0097 292.1259 13.18681379 94530
ONEWEB-0328             
1 49197U 21083M   23226.07371629  .00000203  00000+0  52228-3 0  9990
2 49197  87.9087 166.7287 0002282  77.6918 282.4466 13.13468512 95910
ONEWEB-0331             
1 49198U 21083N   23225.93026463  .00000069  00000+0  14296-3 0  9991
2 49198  87.9287 181.9328 0002105  75.4219 284.7147 13.18686075 94452
ONEWEB-0333             
1 49199U 21083P   23225.76367920 -.00000352  00000+0 -99923-3 0  9996
2 49199  87.9090 166.7922 0001928  84.5955 275.5394 13.13468418 95880
ONEWEB-0334             
1 49200U 21083Q   23226.24293807 -.00000059  00000+0 -17600-3 0  9991
2 49200  87.9230 121.1502 0001324 105.4703 254.6576 13.20771392101077
ONEWEB-0335             
1 49201U 21083R   23226.14035577  .00000364  00000+0  96121-3 0  9991
2 49201  87.9089 166.7072 0002262  80.2642 279.8742 13.13471697 95940
ONEWEB-0336             
1 49202U 21083S   23225.80392017 -.00000053  00000+0 -18067-3 0  9999
2 49202  87.9087 166.7712 0001980  82.9354 277.2001 13.13470015 95904
ONEWEB-0337             
1 49203U 21083T   23226.36043277 -.00000147  00000+0 -43827-3 0  9999
2 49203  87.9081 166.6671 0002124  78.5524 281.5843 13.13473162 95978
ONEWEB-0338             
1 49204U 21083U   23226.24924940  .00000010  00000+0 -70376-5 0  9991
2 49204  87.9237 121.1149 0001919  96.0360 264.0992 13.20774776101109
ONEWEB-0339             
1 49205U 21083V   23226.35938165  .00000432  00000+0  11472-2 0  9994
2 49205  87.9088 166.6638 0002289  87.5636 272.5755 13.13471315 95954
ONEWEB-0340             
1 49206U 21083W   23226.14313174  .00000046  00000+0  85113-4 0  9995
2 49206  87.9288 181.8842 0002123  77.3869 282.7500 13.18688263 94457
ONEWEB-0341             
1 49207U 21083X   23225.92393697 -.00000022  00000+0 -89467-4 0  9991
2 49207  87.9287 181.8561 0002932  84.2428 275.9038 13.18687025 94445
ONEWEB-0342             
1 49208U 21083Y   23226.10405609  .00000076  00000+0  15447-3 0  9993
2 49208  87.9228 121.1798 0001832  86.0761 274.0582 13.20773506101051
ONEWEB-0343             
1 49209U 21083Z   23226.37498288  .00000061  00000+0  12287-3 0  9991
2 49209  87.9287 181.8036 0003136  90.2188 269.9303 13.18686946 94552
ONEWEB-0344             
1 49210U 21083AA  23226.40062376 -.00000262  00000+0 -75180-3 0  9998
2 49210  87.9085 166.6617 0002140  72.0358 288.1004 13.13471162 95961
ONEWEB-0345             
1 49211U 21083AB  23226.11389696 -.00000032  00000+0 -12294-3 0  9996
2 49211  87.9090 166.7046 0002629  69.3740 290.7671 13.13471715 95931
ONEWEB-0346             
1 49212U 21083AC  23226.15577960  .00000041  00000+0  71412-4 0  9990
2 49212  87.9287 181.8386 0002103  67.7326 292.4029 13.18687922 94461
ONEWEB-0348             
1 49213U 21083AD  23226.24715933 -.00000020  00000+0 -80256-4 0  9990
2 49213  87.9231 121.1107 0002522  62.2210 297.9179 13.20773320101103
ONEWEB-0350             
1 49214U 21083AE  23226.35194143 -.00000118  00000+0 -35756-3 0  9999
2 49214  87.9090 166.6859 0002392  72.8150 287.3241 13.13469739 95990
ONEWEB-0351             
1 49215U 21083AF  23225.78629963  .00000006  00000+0 -17973-4 0  9996
2 49215  87.9234 121.1997 0002043  90.8097 269.3270 13.20771299101011
ONEWEB-0352             
1 49216U 21083AG  23226.10437213 -.00000167  00000+0 -49285-3 0  9998
2 49216  87.9087 166.7186 0002149  88.0997 272.0378 13.13472390 96057
ONEWEB-0354             
1 49217U 21083AH  23226.26609788  .00000077  00000+0  15771-3 0  9995
2 49217  87.9231 121.0880 0002314  79.8404 280.2990 13.20770344101112
ONEWEB-0355             
1 49218U 21083AJ  23226.13612322  .00000293  00000+0  76827-3 0  9999
2 49218  87.9085 166.7123 0002195  83.2876 276.8503 13.13468542 95934
ONEWEB-0357             
1 49219U 21083AK  23226.26187622  .00000035  00000+0  54216-4 0  9997
2 49219  87.9236 121.1069 0002041  76.8463 283.2898 13.20774111101103
ONEWEB-0332             
1 49279U 21090A   23225.21272973  .00000042  00000+0  80120-4 0  9990
2 49279  87.9046 136.5429 0001754  87.1118 273.0213 13.14502673 91088
ONEWEB-0347             
1 49280U 21090B   23226.25347224  .00002400  00000+0  58696-2 0  9990
2 49280  87.9244 121.0299 0002062  85.4504 274.6865 13.20759622 94030
ONEWEB-0349             
1 49281U 21090C   23225.75473611 -.00000014  00000+0 -65183-4 0  9997
2 49281  87.9227 121.1969 0002202  72.0904 288.0470 13.20770935 94041
ONEWEB-0353             
1 49282U 21090D   23226.26993039  .00000161  00000+0  39985-3 0  9997
2 49282  87.9049 136.3114 0001713  87.1626 272.9700 13.14501610 92511
ONEWEB-0356             
1 49283U 21090E   23225.75262540  .00000060  00000+0  11508-3 0  9996
2 49283  87.9226 121.2041 0001664  44.9617 315.1651 13.20769042 94044
ONEWEB-0358             
1 49284U 21090F   23226.23663772 -.00000008  00000+0 -52618-4 0  9995
2 49284  87.9225 121.0819 0002089  66.9459 293.1894 13.20776292 94831
ONEWEB-0359             
1 49285U 21090G   23226.23452493  .00000053  00000+0  99447-4 0  9991
2 49285  87.9225 121.1186 0002423  75.7777 284.3626 13.20773346 94802
ONEWEB-0360             
1 49286U 21090H   23226.22399921  .00000100  00000+0  21299-3 0  9999
2 49286  87.9231 121.1162 0002060  76.7523 283.3840 13.20774893 94121
ONEWEB-0361             
1 49287U 21090J   23226.20507053  .00000169  00000+0  38298-3 0  9997
2 49287  87.9231 121.1166 0001826  72.7615 287.3718 13.20770579 94117
ONEWEB-0362             
1 49288U 21090K   23226.32119491 -.00004603  00000+0 -11542-1 0  9996
2 49288  87.9293 151.5111 0001896  80.6738 279.4609 13.19693332 90840
ONEWEB-0363             
1 49289U 21090L   23225.99463576  .00000025  00000+0  29709-4 0  9994
2 49289  87.9229 121.1561 0001821  63.5748 296.5572 13.20770699 94095
ONEWEB-0364             
1 49290U 21090M   23225.72949010  .00000100  00000+0  21490-3 0  9991
2 49290  87.9235 121.2169 0001705  80.5914 279.5412 13.20773079 95184
ONEWEB-0365             
1 49291U 21090N   23226.32958655 -.00000008  00000+0 -51455-4 0  9998
2 49291  87.9292 151.4956 0002085  82.3114 277.8256 13.19724591 90827
ONEWEB-0366             
1 49292U 21090P   23225.73286175  .00000198  00000+0  50070-3 0  9993
2 49292  87.9052 136.4232 0001741  78.9161 281.2164 13.14505431 92434
ONEWEB-0367             
1 49293U 21090Q   23225.99252042  .00000008  00000+0 -12697-4 0  9993
2 49293  87.9227 121.1518 0001626  81.3733 278.7584 13.20774161 94087
ONEWEB-0368             
1 49294U 21090R   23226.11669926  .00000067  00000+0  13401-3 0  9999
2 49294  87.9235 121.1402 0000920  68.2467 291.8764 13.20771263 95259
ONEWEB-0369             
1 49295U 21090S   23226.32538168  .00000045  00000+0  79478-4 0  9999
2 49295  87.9287 151.4923 0001814  78.6822 281.4514 13.19726006 90812
ONEWEB-0370             
1 49296U 21090T   23226.22821936  .00000064  00000+0  12472-3 0  9998
2 49296  87.9227 121.1083 0001920  76.4965 283.6382 13.20770264 94155
ONEWEB-0371             
1 49297U 21090U   23226.33380070  .00000027  00000+0  34262-4 0  9991
2 49297  87.9288 151.4794 0001970  80.4062 279.7293 13.19726402 90859
ONEWEB-0372             
1 49298U 21090V   23225.76315956  .00000035  00000+0  54296-4 0  9997
2 49298  87.9225 121.1971 0001956  90.8926 269.2431 13.20772594 94060
ONEWEB-0373             
1 49299U 21090W   23226.24505770  .00001120  00000+0  27230-2 0  9999
2 49299  87.9230 121.0317 0002097  80.3965 279.7406 13.20766238 95319
ONEWEB-0374             
1 49300U 21090X   23226.25300773 -.00000045  00000+0 -15584-3 0  9996
2 49300  87.9047 136.3118 0001894  77.6595 282.4746 13.14500811 92498
ONEWEB-0375             
1 49301U 21090Y   23226.23243187  .00000055  00000+0  10344-3 0  9998
2 49301  87.9224 121.1105 0001982  54.4272 305.7045 13.20771701 94800
ONEWEB-0376             
1 49302U 21090Z   23226.33169173  .00000044  00000+0  77329-4 0  9997
2 49302  87.9288 151.4959 0001899  86.8730 273.2620 13.19728808 90845
ONEWEB-0377             
1 49303U 21090AA  23226.23032650 -.00000001  00000+0 -35548-4 0  9998
2 49303  87.9225 121.1070 0002141  80.6768 279.4607 13.20773260 94783
ONEWEB-0378             
1 49304U 21090AB  23226.11771427  .00000033  00000+0  48943-4 0  9994
2 49304  87.9227 121.1235 0001602  70.5524 289.5783 13.20769141 94070
ONEWEB-0379             
1 49305U 21090AC  23225.48546837 -.00000144  00000+0 -42206-3 0  9999
2 49305  87.9047 136.4645 0001828  77.7129 282.4205 13.14506251 92405
ONEWEB-0380             
1 49306U 21090AD  23226.32747029  .00000060  00000+0  11852-3 0  9998
2 49306  87.9289 151.4929 0002230  78.0380 282.1003 13.19728843 90811
ONEWEB-0381             
1 49307U 21090AE  23225.98832528 -.00001242  00000+0 -30868-2 0  9991
2 49307  87.9204 121.0731 0001949  73.0820 287.0527 13.20779936 94082
ONEWEB-0382             
1 49308U 21090AF  23226.12720788  .00000047  00000+0  82542-4 0  9991
2 49308  87.9227 121.1250 0001858  68.2447 291.8884 13.20770165 94102
ONEWEB-0383             
1 49309U 21090AG  23226.31643873  .00000211  00000+0  53343-3 0  9991
2 49309  87.9044 136.2836 0001653  74.1878 285.9434 13.14497714 92533
ONEWEB-0384             
1 49310U 21090AH  23225.44118690  .00000014  00000+0  33067-5 0  9994
2 49310  87.9227 121.2576 0001706  55.7434 304.3861 13.20773765 94021
ONEWEB-0385             
1 49311U 21090AJ  23225.73998862 -.00000258  00000+0 -66695-3 0  9997
2 49311  87.9225 121.2003 0001830  64.2767 295.8555 13.20770997 94047
ONEWEB-0386             
1 49312U 21090AK  23226.21133201 -.00014130  00000+0 -34803-1 0  9998
2 49312  87.9232 121.1189 0001626  56.0178 304.1110 13.20838341 94115
